OBJECT_NAME,OBJECT_ID,EPOCH,MEAN_MOTION,ECCENTRICITY,INCLINATION,RA_OF_ASC_NODE,ARG_OF_PERICENTER,MEAN_ANOMALY,EPHEMERIS_TYPE,CLASSIFICATION_TYPE,NORAD_CAT_ID,ELEMENT_SET_NO,REV_AT_EPOCH,BSTAR,MEAN_MOTION_DOT,MEAN_MOTION_DDOT
SIRION PATHFINDER-2,2018-099B,2026-06-05T02:10:49.948032,15.14436976,.0008178,97.4254,205.4362,352.2997,7.8108,0,U,43759,999,41079,.30112E-3,.5474E-4,0
CORVUS BC4,2018-099K,2026-06-05T08:17:48.384096,15.12394430,.0009349,97.4066,199.6730,50.5068,309.6988,0,U,43767,999,41061,.27618E-3,.4735E-4,0
M2 PATHFINDER,2020-037E,2026-06-05T11:24:42.861312,15.04621937,.0011425,97.8154,347.5750,186.8171,173.2901,0,U,45727,999,32373,.23775E-3,.328E-4,0
NETSAT-4,2020-068U,2026-06-05T00:04:14.690784,15.43442394,.0005519,97.8608,163.2689,25.5578,334.5940,0,U,46504,999,31389,.44236761E-3,.19726E-3,0
NETSAT-3,2020-068V,2026-06-05T06:13:25.931424,15.42249360,.0005825,97.8658,161.7772,41.3666,318.8020,0,U,46505,999,31384,.39169E-3,.16765E-3,0
NETSAT-1,2020-068W,2026-06-05T11:06:40.507776,15.34351858,.0006252,97.8746,156.4649,64.0133,296.1751,0,U,46506,999,31350,.42159E-3,.13954E-3,0
NETSAT-2,2020-068X,2026-06-05T07:38:25.457280,15.45466491,.0004992,97.8621,163.4614,58.7254,301.4482,0,U,46507,999,31390,.43566E-3,.20807E-3,0
GREENCUBE (IO-117),2022-080E,2026-06-01T11:09:37.753056,6.42583280,.00088692,70.1435,303.7143,293.3663,66.6064,0,U,53109,999,9105,0,-.3E-7,0
SITRO-AIS 5 (KATYS),2023-091L,2026-06-05T14:52:17.907744,15.29178062,.0012582,97.5060,220.4112,139.3648,220.8533,0,U,57176,999,16257,.45372E-3,.12808E-3,0
SITRO-AIS 6 (CHIRKIN),2023-091AC,2026-06-05T16:52:41.672640,15.25708881,.0012863,97.5069,219.6753,142.0518,218.1629,0,U,57192,999,16253,.46342E-3,.11773E-3,0
SITRO-AIS 8 (ANOKHIN),2023-091AD,2026-06-05T17:19:44.234400,15.31814253,.0011789,97.5057,222.0571,135.1957,225.0238,0,U,57193,999,16269,.53402E-3,.16376E-3,0
SITRO-AIS 7 (FARTUSHNIY),2023-091AE,2026-06-05T16:53:52.393632,15.25401205,.0012643,97.5066,219.5068,142.8381,217.3734,0,U,57194,999,16252,.42522E-3,.10694E-3,0
SITRO-AIS 10 (BURDAEV),2023-091AK,2026-06-05T16:06:37.538784,15.38156327,.0007984,97.5080,226.9420,114.0565,246.1516,0,U,57199,999,16299,.58751E-3,.22047E-3,0
SITRO-AIS 9 (SHCHUKIN),2023-091AM,2026-06-05T15:05:44.532960,15.37681046,.0008191,97.5078,226.6377,114.6094,245.6005,0,U,57201,999,16297,.55989E-3,.20683E-3,0
SITRO-AIS 12 (SMIRENNIY),2023-091AQ,2026-06-05T13:21:41.065920,15.37967113,.0007863,97.5092,227.0239,109.7766,250.4327,0,U,57204,999,16298,.57092E-3,.21288E-3,0
SITRO-AIS 11 (SHEFFER),2023-091AU,2026-06-05T15:19:14.691072,15.38384457,.000774,97.5089,227.3465,109.4466,250.7616,0,U,57208,999,16301,.55765E-3,.21074E-3,0
SITRO-AIS 25,2024-039R,2026-06-05T17:14:11.209056,14.93447719,.0145013,95.3907,227.2116,9.0128,351.3648,0,U,59066,999,12301,.32852E-3,.4213E-4,0
SITRO-AIS 26,2024-039S,2026-06-05T14:00:55.581696,14.93242768,.0145385,95.3907,227.0194,10.0460,350.3616,0,U,59067,999,12298,.29908E-3,.3815E-4,0
SITRO-AIS 27,2024-039T,2026-06-05T14:59:13.388064,14.93663808,.0144421,95.3914,227.3136,8.6286,351.7371,0,U,59068,999,12301,.29049E-3,.3737E-4,0
SITRO-AIS 28,2024-039U,2026-06-05T17:40:03.111168,14.93697559,.0144211,95.3913,227.4371,8.0583,352.2909,0,U,59071,999,12303,.32782E-3,.4224E-4,0
GRBBETA,2024-128C,2026-06-05T09:44:54.985344,15.06552463,.0042246,61.9903,257.5984,132.3321,228.1363,0,U,60237,999,10449,.31651E-3,.4583E-4,0
OOV-CUBE (TUBSAT-30),2024-128F,2026-06-05T11:27:36.061344,15.02719699,.0046084,61.9954,266.4024,131.1623,229.3458,0,U,60240,999,10435,.22604E-3,.2888E-4,0
ROBUSTA-3A (MEDITERRANEE),2024-128J,2026-06-05T18:10:09.571872,15.11526055,.0042961,61.9862,248.6611,125.6372,234.8736,0,U,60243,999,10469,.54385E-3,.9255E-4,0
LASARSAT,2024-247Q,2026-06-03T22:10:16.072896,15.45494859,.00080478,44.9754,336.7002,258.6055,101.3931,0,U,62391,999,8126,.75515127E-3,.36882E-3,0
CROCUBE,2024-247T,2026-06-05T13:13:53.133888,15.47391794,.0008013,44.9727,325.0829,269.8682,90.1290,0,U,62394,999,8154,.72795E-3,.37969E-3,0
FORESAIL-1 PRIME,2025-276DS,2026-06-05T11:10:45.405984,15.18591217,.0003586,97.4201,229.9519,127.4958,232.6603,0,U,66778,999,2862,.24747E-3,.5051E-4,0
KNACKSAT-2,1998-067XZ,2026-06-05T02:39:22.539456,15.58840087,.00107425,51.6316,355.1703,163.6532,196.4809,0,U,67683,999,1839,.6916844E-3,.54547E-3,0
