SIRION PATHFINDER-2     
1 43759U 18099B   26156.09085588  .00005474  00000+0  30112-3 0  9997
2 43759  97.4254 205.4362 0008178 352.2997   7.8108 15.14436976410795
CORVUS BC4              
1 43767U 18099K   26156.34569889  .00004735  00000+0  27618-3 0  9991
2 43767  97.4066 199.6730 0009349  50.5068 309.6988 15.12394430410612
M2 PATHFINDER           
1 45727U 20037E   26156.47549608  .00003280  00000+0  23775-3 0  9999
2 45727  97.8154 347.5750 0011425 186.8171 173.2901 15.04621937323736
NETSAT-4                
1 46504U 20068U   26156.00294781  .00019726  00000+0  44237-3 0  9993
2 46504  97.8608 163.2689 0005519  25.5578 334.5940 15.43442394313897
NETSAT-3                
1 46505U 20068V   26156.25932791  .00016765  00000+0  39169-3 0  9999
2 46505  97.8658 161.7772 0005825  41.3666 318.8020 15.42249360313849
NETSAT-1                
1 46506U 20068W   26156.46296884  .00013954  00000+0  42159-3 0  9999
2 46506  97.8746 156.4649 0006252  64.0133 296.1751 15.34351858313507
NETSAT-2                
1 46507U 20068X   26156.31835020  .00020807  00000+0  43566-3 0  9993
2 46507  97.8621 163.4614 0004992  58.7254 301.4482 15.45466491313900
GREENCUBE (IO-117)      
1 53109U 22080E   26152.46502029 -.00000003  00000+0  00000+0 0  9996
2 53109  70.1435 303.7143 0008869 293.3663  66.6064  6.42583280 91055
SITRO-AIS 5 (KATYS)     
1 57176U 23091L   26156.61965171  .00012808  00000+0  45372-3 0  9999
2 57176  97.5060 220.4112 0012582 139.3648 220.8533 15.29178062162574
SITRO-AIS 6 (CHIRKIN)   
1 57192U 23091AC  26156.70326010  .00011773  00000+0  46342-3 0  9998
2 57192  97.5069 219.6753 0012863 142.0518 218.1629 15.25708881162537
SITRO-AIS 8 (ANOKHIN)   
1 57193U 23091AD  26156.72203975  .00016376  00000+0  53402-3 0  9994
2 57193  97.5057 222.0571 0011789 135.1957 225.0238 15.31814253162695
SITRO-AIS 7 (FARTUSHNIY)
1 57194U 23091AE  26156.70407863  .00010694  00000+0  42522-3 0  9993
2 57194  97.5066 219.5068 0012643 142.8381 217.3734 15.25401205162523
SITRO-AIS 10 (BURDAEV)  
1 57199U 23091AK  26156.67126781  .00022047  00000+0  58751-3 0  9997
2 57199  97.5080 226.9420 0007984 114.0565 246.1516 15.38156327162990
SITRO-AIS 9 (SHCHUKIN)  
1 57201U 23091AM  26156.62898765  .00020683  00000+0  55989-3 0  9998
2 57201  97.5078 226.6377 0008191 114.6094 245.6005 15.37681046162978
SITRO-AIS 12 (SMIRENNIY)
1 57204U 23091AQ  26156.55672530  .00021288  00000+0  57092-3 0  9992
2 57204  97.5092 227.0239 0007863 109.7766 250.4327 15.37967113162989
SITRO-AIS 11 (SHEFFER)  
1 57208U 23091AU  26156.63836448  .00021074  00000+0  55765-3 0  9993
2 57208  97.5089 227.3465 0007740 109.4466 250.7616 15.38384457163015
SITRO-AIS 25            
1 59066U 24039R   26156.71818529  .00004213  00000+0  32852-3 0  9997
2 59066  95.3907 227.2116 0145013   9.0128 351.3648 14.93447719123012
SITRO-AIS 26            
1 59067U 24039S   26156.58397664  .00003815  00000+0  29908-3 0  9990
2 59067  95.3907 227.0194 0145385  10.0460 350.3616 14.93242768122986
SITRO-AIS 27            
1 59068U 24039T   26156.62446051  .00003737  00000+0  29049-3 0  9990
2 59068  95.3914 227.3136 0144421   8.6286 351.7371 14.93663808123013
SITRO-AIS 28            
1 59071U 24039U   26156.73614712  .00004224  00000+0  32782-3 0  9997
2 59071  95.3913 227.4371 0144211   8.0583 352.2909 14.93697559123034
GRBBETA                 
1 60237U 24128C   26156.40619196  .00004583  00000+0  31651-3 0  9999
2 60237  61.9903 257.5984 0042246 132.3321 228.1363 15.06552463104491
OOV-CUBE (TUBSAT-30)    
1 60240U 24128F   26156.47750071  .00002888  00000+0  22604-3 0  9992
2 60240  61.9954 266.4024 0046084 131.1623 229.3458 15.02719699104356
ROBUSTA-3A (MEDITERRAN*)
1 60243U 24128J   26156.75705523  .00009255  00000+0  54385-3 0  9994
2 60243  61.9862 248.6611 0042961 125.6372 234.8736 15.11526055104699
LASARSAT                
1 62391U 24247Q   26154.92379714  .00036882  00000+0  75515-3 0  9992
2 62391  44.9754 336.7002 0008047 258.6055 101.3931 15.45494859 81266
CROCUBE                 
1 62394U 24247T   26156.55130942  .00037969  00000+0  72795-3 0  9998
2 62394  44.9727 325.0829 0008013 269.8682  90.1290 15.47391794 81540
FORESAIL-1 PRIME        
1 66778U 25276DS  26156.46580331  .00005051  00000+0  24747-3 0  9993
2 66778  97.4201 229.9519 0003586 127.4958 232.6603 15.18591217 28624
KNACKSAT-2              
1 67683U 98067XZ  26156.11067754  .00054547  00000+0  69168-3 0  9998
2 67683  51.6316 355.1703 0010742 163.6532 196.4809 15.58840087 18392
